start=new Date('2023-01-04T00:00:00.000Z').valueOf();
sats=[{"ECCENTRICITY":"0.00023400","COUNTRY_CODE":"US","APOAPSIS":"564.628","OBJECT_NAME":"STARLINK-4452","MEAN_MOTION_DOT":"0.00002288","EPHEMERIS_TYPE":"0","RCS_SIZE":"LARGE","FILE":"3730926","CENTER_NAME":"EARTH","ARG_OF_PERICENTER":"50.6624","MEAN_MOTION_DDOT":"0.0000000000000","REF_FRAME":"TEME","ELEMENT_SET_NO":"999","EPOCH":"2023-01-03T09:51:23.381856","RA_OF_ASC_NODE":"246.8597","TLE_LINE2":"2 53658  97.6548 246.8597 0002340  50.6624 309.4807 15.01262758 19009","PERIOD":"95.919","LAUNCH_DATE":"2022-08-31","CLASSIFICATION_TYPE":"U","OBJECT_ID":"2022-105L","OBJECT_TYPE":"PAYLOAD","INCLINATION":"97.6548","DECAY_DATE":null,"MEAN_ANOMALY":"309.4807","MEAN_MOTION":"15.01262758","GP_ID":"222116280","REV_AT_EPOCH":"1900","PERIAPSIS":"561.379","SEMIMAJOR_AXIS":"6941.138","NORAD_CAT_ID":"53658","SITE":"AFWTR","BSTAR":"0.00018264000000","MEAN_ELEMENT_THEORY":"SGP4","TIME_SYSTEM":"UTC","TLE_LINE1":"1 53658U 22105L   23003.41068729  .00002288  00000-0  18264-3 0  9996"},{"GP_ID":"222116483","REV_AT_EPOCH":"1900","PERIAPSIS":"561.295","MEAN_MOTION":"15.01259555","MEAN_ANOMALY":"320.4753","INCLINATION":"97.6566","DECAY_DATE":null,"OBJECT_TYPE":"PAYLOAD","OBJECT_ID":"2022-105M","TIME_SYSTEM":"UTC","TLE_LINE1":"1 53659U 22105M   23003.41254107  .00003406  00000-0  26962-3 0  9991","MEAN_ELEMENT_THEORY":"SGP4","BSTAR":"0.00026962000000","NORAD_CAT_ID":"53659","SITE":"AFWTR","SEMIMAJOR_AXIS":"6941.148","MEAN_MOTION_DDOT":"0.0000000000000","ARG_OF_PERICENTER":"39.6652","CENTER_NAME":"EARTH","FILE":"3730926","RCS_SIZE":"LARGE","OBJECT_NAME":"STARLINK-4463","MEAN_MOTION_DOT":"0.00003406","EPHEMERIS_TYPE":"0","APOAPSIS":"564.732","COUNTRY_CODE":"US","ECCENTRICITY":"0.00024760","CLASSIFICATION_TYPE":"U","LAUNCH_DATE":"2022-08-31","PERIOD":"95.919","TLE_LINE2":"2 53659  97.6566 246.8605 0002476  39.6652 320.4753 15.01259555 19002","RA_OF_ASC_NODE":"246.8605","EPOCH":"2023-01-03T09:54:03.548448","REF_FRAME":"TEME","ELEMENT_SET_NO":"999"},{"RA_OF_ASC_NODE":"246.8538","EPOCH":"2023-01-03T09:43:23.740896","ELEMENT_SET_NO":"999","REF_FRAME":"TEME","CLASSIFICATION_TYPE":"U","LAUNCH_DATE":"2022-08-31","TLE_LINE2":"2 53660  97.6550 246.8538 0002408  43.5973 316.5441 15.01255270 19007","PERIOD":"95.920","APOAPSIS":"564.698","EPHEMERIS_TYPE":"0","MEAN_MOTION_DOT":"0.00000532","OBJECT_NAME":"STARLINK-4473","ECCENTRICITY":"0.00024080","COUNTRY_CODE":"US","FILE":"3730926","CENTER_NAME":"EARTH","MEAN_MOTION_DDOT":"0.0000000000000","ARG_OF_PERICENTER":"43.5973","RCS_SIZE":"LARGE","SITE":"AFWTR","NORAD_CAT_ID":"53660","SEMIMAJOR_AXIS":"6941.161","TLE_LINE1":"1 53660U 22105N   23003.40513589  .00000532  00000-0  46030-4 0  9990","TIME_SYSTEM":"UTC","BSTAR":"0.00004603000000","MEAN_ELEMENT_THEORY":"SGP4","INCLINATION":"97.6550","DECAY_DATE":null,"OBJECT_ID":"2022-105N","OBJECT_TYPE":"PAYLOAD","MEAN_MOTION":"15.01255270","REV_AT_EPOCH":"1900","GP_ID":"222115403","PERIAPSIS":"561.355","MEAN_ANOMALY":"316.5441"},{"ELEMENT_SET_NO":"999","REF_FRAME":"TEME","RA_OF_ASC_NODE":"247.0560","EPOCH":"2023-01-03T14:36:39.674592","TLE_LINE2":"2 53661  97.6547 247.0560 0002588  37.7281 322.4125 15.01257745 19316","PERIOD":"95.920","CLASSIFICATION_TYPE":"U","LAUNCH_DATE":"2022-08-31","ECCENTRICITY":"0.00025880","COUNTRY_CODE":"US","APOAPSIS":"564.815","EPHEMERIS_TYPE":"0","MEAN_MOTION_DOT":"0.00000627","OBJECT_NAME":"STARLINK-4472","RCS_SIZE":"LARGE","FILE":"3730579","CENTER_NAME":"EARTH","MEAN_MOTION_DDOT":"0.0000000000000","ARG_OF_PERICENTER":"37.7281","SEMIMAJOR_AXIS":"6941.154","SITE":"AFWTR","NORAD_CAT_ID":"53661","BSTAR":"0.00005338000000","MEAN_ELEMENT_THEORY":"SGP4","TLE_LINE1":"1 53661U 22105P   23003.60879253  .00000627  00000-0  53380-4 0  9997","TIME_SYSTEM":"UTC","OBJECT_ID":"2022-105P","OBJECT_TYPE":"PAYLOAD","DECAY_DATE":null,"INCLINATION":"97.6547","MEAN_ANOMALY":"322.4125","MEAN_MOTION":"15.01257745","PERIAPSIS":"561.222","GP_ID":"222082691","REV_AT_EPOCH":"1931"},{"MEAN_MOTION":"15.01256218","PERIAPSIS":"561.207","GP_ID":"222115852","REV_AT_EPOCH":"1896","MEAN_ANOMALY":"314.5776","INCLINATION":"97.6552","DECAY_DATE":null,"OBJECT_ID":"2022-105Q","OBJECT_TYPE":"PAYLOAD","TLE_LINE1":"1 53662U 22105Q   23003.13483666  .00004095  00000-0  32326-3 0  9994","TIME_SYSTEM":"UTC","BSTAR":"0.00032326000000","MEAN_ELEMENT_THEORY":"SGP4","SITE":"AFWTR","NORAD_CAT_ID":"53662","SEMIMAJOR_AXIS":"6941.159","CENTER_NAME":"EARTH","FILE":"3730926","MEAN_MOTION_DDOT":"0.0000000000000","ARG_OF_PERICENTER":"45.5662","RCS_SIZE":"LARGE","APOAPSIS":"564.840","MEAN_MOTION_DOT":"0.00004095","EPHEMERIS_TYPE":"0","OBJECT_NAME":"STARLINK-4357","ECCENTRICITY":"0.00026170","COUNTRY_CODE":"US","LAUNCH_DATE":"2022-08-31","CLASSIFICATION_TYPE":"U","TLE_LINE2":"2 53662  97.6552 246.5837 0002617  45.5662 314.5776 15.01256218 18965","PERIOD":"95.920","RA_OF_ASC_NODE":"246.5837","EPOCH":"2023-01-03T03:14:09.887424","ELEMENT_SET_NO":"999","REF_FRAME":"TEME"},{"CLASSIFICATION_TYPE":"U","LAUNCH_DATE":"2022-08-31","TLE_LINE2":"2 53663  97.6551 246.8549 0002206  75.3673 284.7795 15.01253633 19008","PERIOD":"95.920","RA_OF_ASC_NODE":"246.8549","EPOCH":"2023-01-03T09:46:03.791712","REF_FRAME":"TEME","ELEMENT_SET_NO":"999","FILE":"3730926","CENTER_NAME":"EARTH","MEAN_MOTION_DDOT":"0.0000000000000","ARG_OF_PERICENTER":"75.3673","RCS_SIZE":"LARGE","APOAPSIS":"564.563","OBJECT_NAME":"STARLINK-4457","MEAN_MOTION_DOT":"-0.00000336","EPHEMERIS_TYPE":"0","ECCENTRICITY":"0.00022060","COUNTRY_CODE":"US","TIME_SYSTEM":"UTC","TLE_LINE1":"1 53663U 22105R   23003.40698833 -.00000336  00000-0 -21595-4 0  9992","BSTAR":"-0.00002159500000","MEAN_ELEMENT_THEORY":"SGP4","NORAD_CAT_ID":"53663","SITE":"AFWTR","SEMIMAJOR_AXIS":"6941.166","MEAN_MOTION":"15.01253633","PERIAPSIS":"561.500","GP_ID":"222116056","REV_AT_EPOCH":"1900","MEAN_ANOMALY":"284.7795","INCLINATION":"97.6551","DECAY_DATE":null,"OBJECT_ID":"2022-105R","OBJECT_TYPE":"PAYLOAD"},{"SEMIMAJOR_AXIS":"6941.143","SITE":"AFWTR","NORAD_CAT_ID":"53664","MEAN_ELEMENT_THEORY":"SGP4","BSTAR":"0.00038648000000","TLE_LINE1":"1 53664U 22105S   23003.73284577  .00004909  00000-0  38648-3 0  9999","TIME_SYSTEM":"UTC","OBJECT_TYPE":"PAYLOAD","OBJECT_ID":"2022-105S","DECAY_DATE":null,"INCLINATION":"97.6554","MEAN_ANOMALY":"319.4997","GP_ID":"222088673","PERIAPSIS":"561.162","REV_AT_EPOCH":"1933","MEAN_MOTION":"15.01261272","ELEMENT_SET_NO":"999","REF_FRAME":"TEME","EPOCH":"2023-01-03T17:35:17.874528","RA_OF_ASC_NODE":"247.1666","PERIOD":"95.919","TLE_LINE2":"2 53664  97.6554 247.1666 0002660  40.6425 319.4997 15.01261272 19334","LAUNCH_DATE":"2022-08-31","CLASSIFICATION_TYPE":"U","COUNTRY_CODE":"US","ECCENTRICITY":"0.00026600","EPHEMERIS_TYPE":"0","MEAN_MOTION_DOT":"0.00004909","OBJECT_NAME":"STARLINK-4471","APOAPSIS":"564.854","RCS_SIZE":"LARGE","ARG_OF_PERICENTER":"40.6425","MEAN_MOTION_DDOT":"0.0000000000000","CENTER_NAME":"EARTH","FILE":"3730867"},{"SEMIMAJOR_AXIS":"6941.138","SITE":"AFWTR","NORAD_CAT_ID":"53665","MEAN_ELEMENT_THEORY":"SGP4","BSTAR":"0.00007432200000","TLE_LINE1":"1 53665U 22105T   23003.40353139  .00000896  00000-0  74322-4 0  9996","TIME_SYSTEM":"UTC","OBJECT_TYPE":"PAYLOAD","OBJECT_ID":"2022-105T","INCLINATION":"97.6555","DECAY_DATE":null,"MEAN_ANOMALY":"315.1816","REV_AT_EPOCH":"1900","GP_ID":"222115155","PERIAPSIS":"561.395","MEAN_MOTION":"15.01262893","ELEMENT_SET_NO":"999","REF_FRAME":"TEME","RA_OF_ASC_NODE":"246.8535","EPOCH":"2023-01-03T09:41:05.112096","PERIOD":"95.919","TLE_LINE2":"2 53665  97.6555 246.8535 0002317  44.9596 315.1816 15.01262893 19009","CLASSIFICATION_TYPE":"U","LAUNCH_DATE":"2022-08-31","COUNTRY_CODE":"US","ECCENTRICITY":"0.00023170","EPHEMERIS_TYPE":"0","MEAN_MOTION_DOT":"0.00000896","OBJECT_NAME":"STARLINK-4334","APOAPSIS":"564.611","RCS_SIZE":"LARGE","ARG_OF_PERICENTER":"44.9596","MEAN_MOTION_DDOT":"0.0000000000000","FILE":"3730926","CENTER_NAME":"EARTH"},{"MEAN_MOTION_DDOT":"0.0000000000000","ARG_OF_PERICENTER":"41.3028","FILE":"3730926","CENTER_NAME":"EARTH","RCS_SIZE":"LARGE","OBJECT_NAME":"STARLINK-4449","EPHEMERIS_TYPE":"0","MEAN_MOTION_DOT":"0.00006487","APOAPSIS":"564.617","COUNTRY_CODE":"US","ECCENTRICITY":"0.00023450","LAUNCH_DATE":"2022-08-31","CLASSIFICATION_TYPE":"U","PERIOD":"95.919","TLE_LINE2":"2 53666  97.6535 246.8171 0002345  41.3028 318.8373 15.01267325 19009","EPOCH":"2023-01-03T09:30:24.723072","RA_OF_ASC_NODE":"246.8171","REF_FRAME":"TEME","ELEMENT_SET_NO":"999","PERIAPSIS":"561.362","GP_ID":"222116281","REV_AT_EPOCH":"1900","MEAN_MOTION":"15.01267325","MEAN_ANOMALY":"318.8373","INCLINATION":"97.6535","DECAY_DATE":null,"OBJECT_TYPE":"PAYLOAD","OBJECT_ID":"2022-105U","TIME_SYSTEM":"UTC","TLE_LINE1":"1 53666U 22105U   23003.39611948  .00006487  00000-0  50903-3 0  9990","MEAN_ELEMENT_THEORY":"SGP4","BSTAR":"0.00050903000000","NORAD_CAT_ID":"53666","SITE":"AFWTR","SEMIMAJOR_AXIS":"6941.124"},{"MEAN_MOTION":"15.01262903","GP_ID":"222116484","PERIAPSIS":"561.386","REV_AT_EPOCH":"1896","MEAN_ANOMALY":"324.1435","DECAY_DATE":null,"INCLINATION":"97.6551","OBJECT_ID":"2022-105V","OBJECT_TYPE":"PAYLOAD","TLE_LINE1":"1 53667U 22105V   23003.13666859 -.00000069  00000-0 -79661-6 0  9991","TIME_SYSTEM":"UTC","BSTAR":"-0.00000079661000","MEAN_ELEMENT_THEORY":"SGP4","SITE":"AFWTR","NORAD_CAT_ID":"53667","SEMIMAJOR_AXIS":"6941.138","CENTER_NAME":"EARTH","FILE":"3730926","MEAN_MOTION_DDOT":"0.0000000000000","ARG_OF_PERICENTER":"35.9946","RCS_SIZE":"LARGE","APOAPSIS":"564.620","MEAN_MOTION_DOT":"-0.00000069","EPHEMERIS_TYPE":"0","OBJECT_NAME":"STARLINK-4406","ECCENTRICITY":"0.00023300","COUNTRY_CODE":"US","CLASSIFICATION_TYPE":"U","LAUNCH_DATE":"2022-08-31","TLE_LINE2":"2 53667  97.6551 246.5896 0002330  35.9946 324.1435 15.01262903 18961","PERIOD":"95.919","EPOCH":"2023-01-03T03:16:48.166176","RA_OF_ASC_NODE":"246.5896","ELEMENT_SET_NO":"999","REF_FRAME":"TEME"}];
